{"fetched_at":"2026-03-27T07:04:08Z","count":10282,"tles":[{"name":"SL-6 R/B(2)","line1":"1 20666U 90055D   26085.39702103  .00001873  00000+0  14969-3 0  9995","line2":"2 20666  62.7831 197.0304 0027527 350.8886   9.1710 15.03673457940703","category":"Other"},{"name":"ARIANE 40 R/B","line1":"1 20443U 90005H   26085.14388303  .00000265  00000+0  97702-4 0  9999","line2":"2 20443  98.3049 145.3124 0010853 150.0463 210.1349 14.39880961895173","category":"Other"},{"name":"SL-14 R/B","line1":"1 20262U 89080C   26085.51980816  .00000380  00000+0  10629-3 0  9997","line2":"2 20262  82.5960 162.3867 1230876 146.2994 222.2939 12.50509887662254","category":"Other"},{"name":"DELTA 2 R/B(1)","line1":"1 20453U 90008B   26085.23805440  .00069454  00000+0  76494-3 0  9998","line2":"2 20453  35.6039  66.0740 0078698  53.1388 307.6533 15.58109959928717","category":"Other"},{"name":"SL-14 R/B","line1":"1 20466U 90010B   26085.41358214  .00000500  00000+0  57658-4 0  9996","line2":"2 20466  82.4993 251.6746 0018480 242.8392 117.0939 14.83583630930965","category":"Other"},{"name":"COSMOS 1975","line1":"1 19573U 88093A   26085.48752833  .00005987  00000+0  21559-3 0  9997","line2":"2 19573  82.5167 100.8164 0013321 109.4902 250.7778 15.28289797 21974","category":"Other"},{"name":"SL-16 R/B","line1":"1 19650U 88102B   26085.50409875 -.00000221  00000+0 -87482-4 0  9998","line2":"2 19650  70.9975 116.1185 0015015 336.1915  23.8512 14.16154123929271","category":"Other"},{"name":"INTERCOSMOS 24","line1":"1 20261U 89080A   26085.48316237  .00000513  00000+0  15186-3 0  9993","line2":"2 20261  82.6011  93.4649 1186810 253.8043  92.9489 12.59579558668913","category":"Other"},{"name":"COSMOS 2058","line1":"1 20465U 90010A   26085.33202542  .00004513  00000+0  26507-3 0  9994","line2":"2 20465  82.4683  31.0282 0007438 279.3565  80.6824 15.11466302944751","category":"Other"},{"name":"SL-14 R/B","line1":"1 19574U 88093B   26085.30791177  .00000569  00000+0  62703-4 0  9991","line2":"2 19574  82.5336  26.4456 0020333 347.6583 126.0223 14.85675758  3486","category":"Other"},{"name":"SL-14 R/B","line1":"1 20511U 90018B   26085.37995053  .00000463  00000+0  55014-4 0  9990","line2":"2 20511  82.5233 207.4920 0017117  41.2061 319.0441 14.82161110925057","category":"Other"},{"name":"HST","line1":"1 20580U 90037B   26085.25385161  .00007258  00000+0  23706-3 0  9998","line2":"2 20580  28.4723 286.9845 0001573 319.9838  40.0642 15.29731597775859","category":"Other"},{"name":"SL-16 R/B","line1":"1 20625U 90046B   26084.95631898  .00000194  00000+0  12460-3 0  9992","line2":"2 20625  70.9952 263.7481 0016296 278.3361  81.5914 14.15014109850696","category":"Other"},{"name":"SL-8 R/B","line1":"1 20775U 90078B   26085.43877529  .00013001  00000+0  38492-3 0  9994","line2":"2 20775  82.9019 236.2387 0358855 317.5352  39.8600 14.89571696811791","category":"Other"},{"name":"COSMOS 2084","line1":"1 20663U 90055A   26085.52430630  .00002308  00000+0  17229-3 0  9996","line2":"2 20663  62.7892 278.1559 0014427 195.0903 164.9769 15.05739159938855","category":"Other"},{"name":"DELTA 1 R/B","line1":"1 20323U 89089B   26085.31290023  .00000316  00000+0  86452-4 0  9993","line2":"2 20323  97.0694 290.1060 0070618  70.5092 290.3717 14.50676211898142","category":"Other"},{"name":"SL-8 R/B","line1":"1 19257U 88053B   26085.42212713  .00000326  00000+0  11421-3 0  9993","line2":"2 19257  74.0453  81.6201 0021500 258.6970 215.2946 14.38927117979009","category":"Other"}]}